SENTINEL-6              
1 46984U 20086A   24152.52338217 -.00000017  00000+0  19298-3 0  9992
2 46984  66.0416 245.8792 0007871 270.5891  89.4222 12.80928412164812
